OBJECT_NAME,OBJECT_ID,EPOCH,MEAN_MOTION,ECCENTRICITY,INCLINATION,RA_OF_ASC_NODE,ARG_OF_PERICENTER,MEAN_ANOMALY,EPHEMERIS_TYPE,CLASSIFICATION_TYPE,NORAD_CAT_ID,ELEMENT_SET_NO,REV_AT_EPOCH,BSTAR,MEAN_MOTION_DOT,MEAN_MOTION_DDOT
STARLINK-31568,2024-064Q,2026-07-12T01:15:14.474304,15.27572470,.00010276,43.0032,73.9887,239.4728,120.6022,0,U,59412,999,12824,.16340306E-4,.188E-5,0
STARLINK-31615,2024-064R,2026-07-12T00:46:22.488672,15.28934566,.00033088,43.0013,66.8959,266.6161,93.4313,0,U,59413,999,12832,.17100704E-3,.4642E-4,0
STARLINK-31457,2024-064S,2026-07-11T23:35:04.135200,15.27575191,.00011856,43.0044,67.3792,276.8205,83.2512,0,U,59414,999,12831,.31223083E-4,.597E-5,0
STARLINK-31398,2024-064T,2026-07-12T00:49:18.188256,15.27585523,.000157,43.0021,73.8564,267.3951,92.6721,0,U,59415,999,12824,-.90966629E-4,-.2765E-4,0
STARLINK-31399,2024-064U,2026-07-12T00:40:05.261088,15.27572721,.00006122,42.9962,73.8061,355.1457,4.9388,0,U,59416,999,12824,-.2581685E-5,-.333E-5,0
STARLINK-31401,2024-064V,2026-07-12T00:59:57.093792,15.27509307,.00017053,43.0065,66.9830,248.6609,111.4061,0,U,59417,999,12807,.39110412E-3,.10492E-3,0
STARLINK-31414,2024-064W,2026-07-12T16:47:32.786592,15.27576918,.0001628,43.0066,70.2528,277.0155,83.0511,0,U,59418,999,12834,-.6792E-5,-.449E-5,0
STARLINK-31415,2024-064X,2026-07-12T00:08:51.326304,15.27569160,.00016603,43.0007,74.5118,246.5497,113.5181,0,U,59419,999,12823,-.13863931E-4,-.644E-5,0
STARLINK-31466,2024-064Y,2026-07-12T01:37:26.776992,15.27576965,.0001195,43.0042,74.1080,273.8011,86.2704,0,U,59420,999,12824,.58013916E-4,.1334E-4,0
STARLINK-11087 [DTC],2024-065A,2026-07-12T11:55:29.107488,15.69710710,.00012445,53.1593,198.7637,79.6604,280.4554,0,U,59421,999,13111,.9246585E-5,.531E-5,0
STARLINK-11090 [DTC],2024-065B,2026-07-12T10:02:37.071168,15.69704726,.00017135,53.1565,198.9812,90.2139,269.9075,0,U,59422,999,13112,.2689618E-5,-.264E-5,0
STARLINK-11093 [DTC],2024-065C,2026-07-12T08:37:59.367360,15.69709764,.00009452,53.1602,199.3282,73.9052,286.2070,0,U,59423,999,13110,.401838E-6,-.54E-5,0
STARLINK-11083 [DTC],2024-065D,2026-07-12T01:06:37.146528,15.69727947,.00010583,53.1589,200.9286,80.0304,280.0833,0,U,59424,999,13100,.18215644E-4,.162E-4,0
STARLINK-11085 [DTC],2024-065E,2026-07-12T09:55:33.216096,15.69706331,.00015694,53.1582,198.9492,70.0828,290.0359,0,U,59425,999,13106,.2026772E-5,-.344E-5,0
STARLINK-11089 [DTC],2024-065F,2026-07-12T01:20:45.458016,15.69715195,.00013558,53.1586,201.0068,96.3926,263.7246,0,U,59426,999,13105,.1750206E-5,-.377E-5,0
STARLINK-31757,2024-065G,2026-07-12T00:35:52.255104,15.34388438,.00015476,53.1604,62.8926,79.7969,280.3208,0,U,59427,999,12798,-.11104947E-4,-.751E-5,0
STARLINK-31773,2024-065J,2026-07-12T15:24:45.124416,15.30188144,.0001559,53.1605,63.1679,122.3226,237.7926,0,U,59429,999,12803,.53983E-4,.1239E-4,0
STARLINK-31772,2024-065K,2026-07-12T18:33:02.409120,15.34390989,.0001049,53.1608,59.7263,64.6413,295.4698,0,U,59430,999,12809,.37753E-5,-.249E-5,0
STARLINK-31613,2024-065L,2026-07-12T19:30:30.528576,15.34386062,.0001229,53.1558,59.2714,85.0914,275.0229,0,U,59431,999,12810,.69364E-4,.1967E-4,0
STARLINK-31780,2024-065M,2026-07-12T19:18:23.305824,15.34388872,.0001435,53.1599,59.2100,96.4860,263.6306,0,U,59432,999,12810,.1648E-3,.5194E-4,0
STARLINK-31740,2024-065N,2026-07-12T01:15:14.257440,15.30200605,.00017469,53.1605,65.8860,111.0936,249.0252,0,U,59433,999,12794,-.269675E-5,-.439E-5,0
STARLINK-31580,2024-065P,2026-07-11T20:45:12.713472,15.30197960,.00009034,53.1595,66.8500,111.1081,249.0016,0,U,59434,999,12791,-.4264061E-5,-.485E-5,0
STARLINK-31696,2024-065Q,2026-07-12T14:58:11.932608,15.34388838,.0001218,53.1610,60.2145,131.4104,228.7004,0,U,59435,999,12807,-.1821E-4,-.991E-5,0
STARLINK-31700,2024-065R,2026-07-12T02:46:00.788160,15.34393801,.00012405,53.1613,62.7315,89.6927,270.4218,0,U,59436,999,12799,.16695089E-4,.188E-5,0
STARLINK-31706,2024-065S,2026-07-12T01:16:44.668992,15.30199656,.00012564,53.1604,65.9000,94.8976,265.2169,0,U,59437,999,12794,.10922457E-4,-.36E-6,0
STARLINK-31711,2024-065T,2026-07-12T15:07:17.355072,15.34391311,.0001237,53.1608,60.2555,79.4214,280.6928,0,U,59438,999,12807,-.61268E-5,-.583E-5,0
STARLINK-31708,2024-065U,2026-07-12T18:42:09.355680,15.34396437,.0001252,53.1604,59.7620,88.2842,271.8304,0,U,59439,999,12809,.18689E-3,.5942E-4,0
STARLINK-31693,2024-065W,2026-07-12T18:51:14.289984,15.34394259,.0001036,53.1599,59.8018,71.0100,289.1015,0,U,59441,999,12809,.33184E-4,.745E-5,0
TSAT-1A,2024-066A,2026-07-12T19:26:06.434880,15.35596502,.0012808,45.6169,340.5890,257.4436,102.5027,0,U,59442,999,12571,.25888E-3,.8832E-4,0
HAWK-8A,2024-066B,2026-07-12T05:35:38.258016,14.99281267,.0002796,45.5951,147.1342,207.8181,152.2550,0,U,59443,999,12359,.69591E-4,.631E-5,0
