STARLINK-31568          
1 59412U 24064Q   26193.05225086  .00000188  00000+0  16340-4 0  9990
2 59412  43.0032  73.9887 0001027 239.4728 120.6022 15.27572470128242
STARLINK-31615          
1 59413U 24064R   26193.03220473  .00004642  00000+0  17101-3 0  9998
2 59413  43.0013  66.8959 0003308 266.6161  93.4313 15.28934566128328
STARLINK-31457          
1 59414U 24064S   26192.98268675  .00000597  00000+0  31223-4 0  9995
2 59414  43.0044  67.3792 0001185 276.8205  83.2512 15.27575191128318
STARLINK-31398          
1 59415U 24064T   26193.03423829 -.00002765  00000+0 -90967-4 0  9998
2 59415  43.0021  73.8564 0001570 267.3951  92.6721 15.27585523128242
STARLINK-31399          
1 59416U 24064U   26193.02783867 -.00000333  00000+0 -25817-5 0  9991
2 59416  42.9962  73.8061 0000612 355.1457   4.9388 15.27572721128241
STARLINK-31401          
1 59417U 24064V   26193.04163303  .00010492  00000+0  39110-3 0  9995
2 59417  43.0065  66.9830 0001705 248.6609 111.4061 15.27509307128077
STARLINK-31414          
1 59418U 24064W   26193.69968503 -.00000449  00000+0 -67920-5 0  9997
2 59418  43.0066  70.2528 0001628 277.0155  83.0511 15.27576918128343
STARLINK-31415          
1 59419U 24064X   26193.00614961 -.00000644  00000+0 -13864-4 0  9993
2 59419  43.0007  74.5118 0001660 246.5497 113.5181 15.27569160128238
STARLINK-31466          
1 59420U 24064Y   26193.06767103  .00001334  00000+0  58014-4 0  9999
2 59420  43.0042  74.1080 0001195 273.8011  86.2704 15.27576965128240
STARLINK-11087 [DTC]    
1 59421U 24065A   26193.49686467  .00000531  00000+0  92466-5 0  9999
2 59421  53.1593 198.7637 0001244  79.6604 280.4554 15.69710710131115
STARLINK-11090 [DTC]    
1 59422U 24065B   26193.41848462 -.00000264  00000+0  26896-5 0  9995
2 59422  53.1565 198.9812 0001713  90.2139 269.9075 15.69704726131126
STARLINK-11093 [DTC]    
1 59423U 24065C   26193.35971490 -.00000540  00000+0  40184-6 0  9991
2 59423  53.1602 199.3282 0000945  73.9052 286.2070 15.69709764131105
STARLINK-11083 [DTC]    
1 59424U 24065D   26193.04626327  .00001620  00000+0  18216-4 0  9992
2 59424  53.1589 200.9286 0001058  80.0304 280.0833 15.69727947131009
STARLINK-11085 [DTC]    
1 59425U 24065E   26193.41357889 -.00000344  00000+0  20268-5 0  9992
2 59425  53.1582 198.9492 0001569  70.0828 290.0359 15.69706331131069
STARLINK-11089 [DTC]    
1 59426U 24065F   26193.05608169 -.00000377  00000+0  17502-5 0  9996
2 59426  53.1586 201.0068 0001355  96.3926 263.7246 15.69715195131051
STARLINK-31757          
1 59427U 24065G   26193.02491036 -.00000751  00000+0 -11105-4 0  9996
2 59427  53.1604  62.8926 0001547  79.7969 280.3208 15.34388438127982
STARLINK-31773          
1 59429U 24065J   26193.64218894  .00001239  00000+0  53983-4 0  9995
2 59429  53.1605  63.1679 0001559 122.3226 237.7926 15.30188144128036
STARLINK-31772          
1 59430U 24065K   26193.77294455 -.00000249  00000+0  37753-5 0  9997
2 59430  53.1608  59.7263 0001049  64.6413 295.4698 15.34390989128090
STARLINK-31613          
1 59431U 24065L   26193.81285334  .00001967  00000+0  69364-4 0  9998
2 59431  53.1558  59.2714 0001229  85.0914 275.0229 15.34386062128107
STARLINK-31780          
1 59432U 24065M   26193.80443641  .00005194  00000+0  16480-3 0  9991
2 59432  53.1599  59.2100 0001435  96.4860 263.6306 15.34388872128107
STARLINK-31740          
1 59433U 24065N   26193.05224835 -.00000439  00000+0 -26968-5 0  9994
2 59433  53.1605  65.8860 0001746 111.0936 249.0252 15.30200605127947
STARLINK-31580          
1 59434U 24065P   26192.86473048 -.00000485  00000+0 -42641-5 0  9992
2 59434  53.1595  66.8500 0000903 111.1081 249.0016 15.30197960127918
STARLINK-31696          
1 59435U 24065Q   26193.62374922 -.00000991  00000+0 -18210-4 0  9995
2 59435  53.1610  60.2145 0001218 131.4104 228.7004 15.34388838128070
STARLINK-31700          
1 59436U 24065R   26193.11528690  .00000188  00000+0  16695-4 0  9994
2 59436  53.1613  62.7315 0001240  89.6927 270.4218 15.34393801127999
STARLINK-31706          
1 59437U 24065S   26193.05329478 -.00000036  00000+0  10922-4 0  9991
2 59437  53.1604  65.9000 0001256  94.8976 265.2169 15.30199656127945
STARLINK-31711          
1 59438U 24065T   26193.63006198 -.00000583  00000+0 -61268-5 0  9995
2 59438  53.1608  60.2555 0001237  79.4214 280.6928 15.34391311128071
STARLINK-31708          
1 59439U 24065U   26193.77927495  .00005942  00000+0  18689-3 0  9992
2 59439  53.1604  59.7620 0001252  88.2842 271.8304 15.34396437128092
STARLINK-31693          
1 59441U 24065W   26193.78558206  .00000745  00000+0  33184-4 0  9990
2 59441  53.1599  59.8018 0001036  71.0100 289.1015 15.34394259128098
TSAT-1A                 
1 59442U 24066A   26193.80979670  .00008832  00000+0  25888-3 0  9993
2 59442  45.6169 340.5890 0012808 257.4436 102.5027 15.35596502125710
HAWK-8A                 
1 59443U 24066B   26193.23308169  .00000631  00000+0  69591-4 0  9999
2 59443  45.5951 147.1342 0002796 207.8181 152.2550 14.99281267123598
